{
  "type": "FeatureCollection",
  "features": [
    {
      "type": "Feature",
      "properties": {
        "norad_id": 41330,
        "name": "COSMOS 2514 (751)",
        "group": "glo-ops",
        "lat": -23.82940067683338,
        "lon": -52.72544056086765,
        "alt_km": 19145.140236946347,
        "timestamp": "2025-12-21T09:37:22.915694+00:00",
        "meta_object_name": "COSMOS 2514 (751)",
        "meta_object_id": "2016-008A",
        "meta_epoch": "2025-12-20T23:11:21.346656",
        "meta_mean_motion": 2.13102678,
        "meta_eccentricity": 0.0011747,
        "meta_inclination": 65.1291,
        "meta_ra_of_asc_node": 319.1224,
        "meta_arg_of_pericenter": 220.1373,
        "meta_mean_anomaly": 139.7688,
        "meta_ephemeris_type": 0,
        "meta_classification_type": "U",
        "meta_norad_cat_id": 41330,
        "meta_element_set_no": 999,
        "meta_rev_at_epoch": 7682,
        "meta_bstar": 0,
        "meta_mean_motion_dot": -4.9e-07,
        "meta_mean_motion_ddot": 0,
        "tle_line1": "1 41330U 16008A   25354.96621929 -.00000049  00000+0  00000+0 0  9991",
        "tle_line2": "2 41330  65.1291 319.1224 0011747 220.1373 139.7688  2.13102678 76822"
      },
      "geometry": {
        "type": "Point",
        "coordinates": [
          -52.72544056086765,
          -23.82940067683338
        ]
      }
    },
    {
      "type": "Feature",
      "properties": {
        "norad_id": 42939,
        "name": "COSMOS 2522 (752)",
        "group": "glo-ops",
        "lat": 63.071803193482125,
        "lon": -55.418769636223466,
        "alt_km": 19132.60006317665,
        "timestamp": "2025-12-21T09:37:22.915707+00:00",
        "meta_object_name": "COSMOS 2522 (752)",
        "meta_object_id": "2017-055A",
        "meta_epoch": "2025-12-20T19:18:35.639424",
        "meta_mean_motion": 2.13102071,
        "meta_eccentricity": 0.0006306,
        "meta_inclination": 64.0764,
        "meta_ra_of_asc_node": 197.9542,
        "meta_arg_of_pericenter": 223.7674,
        "meta_mean_anomaly": 136.256,
        "meta_ephemeris_type": 0,
        "meta_classification_type": "U",
        "meta_norad_cat_id": 42939,
        "meta_element_set_no": 999,
        "meta_rev_at_epoch": 6417,
        "meta_bstar": 0,
        "meta_mean_motion_dot": 9.9e-07,
        "meta_mean_motion_ddot": 0,
        "tle_line1": "1 42939U 17055A   25354.80457916  .00000099  00000+0  00000+0 0  9990",
        "tle_line2": "2 42939  64.0764 197.9542 0006306 223.7674 136.2560  2.13102071 64177"
      },
      "geometry": {
        "type": "Point",
        "coordinates": [
          -55.418769636223466,
          63.071803193482125
        ]
      }
    },
    {
      "type": "Feature",
      "properties": {
        "norad_id": 43508,
        "name": "COSMOS 2527 (756)",
        "group": "glo-ops",
        "lat": 46.263382467923016,
        "lon": -128.5853680750989,
        "alt_km": 19128.346472773246,
        "timestamp": "2025-12-21T09:37:22.915720+00:00",
        "meta_object_name": "COSMOS 2527 (756)",
        "meta_object_id": "2018-053A",
        "meta_epoch": "2025-12-20T18:22:11.791200",
        "meta_mean_motion": 2.13102375,
        "meta_eccentricity": 0.0008872,
        "meta_inclination": 65.4768,
        "meta_ra_of_asc_node": 79.8631,
        "meta_arg_of_pericenter": 227.1027,
        "meta_mean_anomaly": 132.8569,
        "meta_ephemeris_type": 0,
        "meta_classification_type": "U",
        "meta_norad_cat_id": 43508,
        "meta_element_set_no": 999,
        "meta_rev_at_epoch": 5847,
        "meta_bstar": 0,
        "meta_mean_motion_dot": -1.4e-07,
        "meta_mean_motion_ddot": 0,
        "tle_line1": "1 43508U 18053A   25354.76541425 -.00000014  00000+0  00000+0 0  9994",
        "tle_line2": "2 43508  65.4768  79.8631 0008872 227.1027 132.8569  2.13102375 58470"
      },
      "geometry": {
        "type": "Point",
        "coordinates": [
          -128.5853680750989,
          46.263382467923016
        ]
      }
    },
    {
      "type": "Feature",
      "properties": {
        "norad_id": 43687,
        "name": "COSMOS 2529 (757)",
        "group": "glo-ops",
        "lat": 45.872540142752875,
        "lon": -131.60292942634447,
        "alt_km": 19141.360251242822,
        "timestamp": "2025-12-21T09:37:22.915732+00:00",
        "meta_object_name": "COSMOS 2529 (757)",
        "meta_object_id": "2018-086A",
        "meta_epoch": "2025-12-20T20:42:25.544160",
        "meta_mean_motion": 2.13102145,
        "meta_eccentricity": 0.0007021,
        "meta_inclination": 64.2923,
        "meta_ra_of_asc_node": 198.6139,
        "meta_arg_of_pericenter": 253.6005,
        "meta_mean_anomaly": 106.3966,
        "meta_ephemeris_type": 0,
        "meta_classification_type": "U",
        "meta_norad_cat_id": 43687,
        "meta_element_set_no": 999,
        "meta_rev_at_epoch": 5548,
        "meta_bstar": 0,
        "meta_mean_motion_dot": 9.8e-07,
        "meta_mean_motion_ddot": 0,
        "tle_line1": "1 43687U 18086A   25354.86279565  .00000098  00000+0  00000+0 0  9993",
        "tle_line2": "2 43687  64.2923 198.6139 0007021 253.6005 106.3966  2.13102145 55486"
      },
      "geometry": {
        "type": "Point",
        "coordinates": [
          -131.60292942634447,
          45.872540142752875
        ]
      }
    },
    {
      "type": "Feature",
      "properties": {
        "norad_id": 44299,
        "name": "COSMOS 2534 (758)",
        "group": "glo-ops",
        "lat": -6.461878111259032,
        "lon": 21.725358048381878,
        "alt_km": 19133.94535822923,
        "timestamp": "2025-12-21T09:37:22.915743+00:00",
        "meta_object_name": "COSMOS 2534 (758)",
        "meta_object_id": "2019-030A",
        "meta_epoch": "2025-12-18T18:30:09.690336",
        "meta_mean_motion": 2.13102412,
        "meta_eccentricity": 0.0008748,
        "meta_inclination": 64.3658,
        "meta_ra_of_asc_node": 198.6898,
        "meta_arg_of_pericenter": 284.2192,
        "meta_mean_anomaly": 45.4012,
        "meta_ephemeris_type": 0,
        "meta_classification_type": "U",
        "meta_norad_cat_id": 44299,
        "meta_element_set_no": 999,
        "meta_rev_at_epoch": 5107,
        "meta_bstar": 0,
        "meta_mean_motion_dot": 1.08e-06,
        "meta_mean_motion_ddot": 0,
        "tle_line1": "1 44299U 19030A   25352.77094549  .00000108  00000+0  00000+0 0  9990",
        "tle_line2": "2 44299  64.3658 198.6898 0008748 284.2192  45.4012  2.13102412 51071"
      },
      "geometry": {
        "type": "Point",
        "coordinates": [
          21.725358048381878,
          -6.461878111259032
        ]
      }
    },
    {
      "type": "Feature",
      "properties": {
        "norad_id": 44850,
        "name": "COSMOS 2544 (759)",
        "group": "glo-ops",
        "lat": 9.23745945382584,
        "lon": -104.57067011052747,
        "alt_km": 19123.081355521605,
        "timestamp": "2025-12-21T09:37:22.915754+00:00",
        "meta_object_name": "COSMOS 2544 (759)",
        "meta_object_id": "2019-088A",
        "meta_epoch": "2025-12-21T04:18:06.689376",
        "meta_mean_motion": 2.13102125,
        "meta_eccentricity": 0.0014189,
        "meta_inclination": 65.4644,
        "meta_ra_of_asc_node": 79.6762,
        "meta_arg_of_pericenter": 250.1854,
        "meta_mean_anomaly": 109.6984,
        "meta_ephemeris_type": 0,
        "meta_classification_type": "U",
        "meta_norad_cat_id": 44850,
        "meta_element_set_no": 999,
        "meta_rev_at_epoch": 4692,
        "meta_bstar": 0,
        "meta_mean_motion_dot": -1e-07,
        "meta_mean_motion_ddot": 0,
        "tle_line1": "1 44850U 19088A   25355.17924409 -.00000010  00000+0  00000+0 0  9993",
        "tle_line2": "2 44850  65.4644  79.6762 0014189 250.1854 109.6984  2.13102125 46922"
      },
      "geometry": {
        "type": "Point",
        "coordinates": [
          -104.57067011052747,
          9.23745945382584
        ]
      }
    },
    {
      "type": "Feature",
      "properties": {
        "norad_id": 45358,
        "name": "COSMOS 2545 (760)",
        "group": "glo-ops",
        "lat": 17.906922752754372,
        "lon": -32.471806286637275,
        "alt_km": 19146.652971729818,
        "timestamp": "2025-12-21T09:37:22.915765+00:00",
        "meta_object_name": "COSMOS 2545 (760)",
        "meta_object_id": "2020-018A",
        "meta_epoch": "2025-12-20T21:44:12.707232",
        "meta_mean_motion": 2.13102664,
        "meta_eccentricity": 0.0011427,
        "meta_inclination": 64.4648,
        "meta_ra_of_asc_node": 318.6832,
        "meta_arg_of_pericenter": 250.0027,
        "meta_mean_anomaly": 109.8671,
        "meta_ephemeris_type": 0,
        "meta_classification_type": "U",
        "meta_norad_cat_id": 45358,
        "meta_element_set_no": 999,
        "meta_rev_at_epoch": 4486,
        "meta_bstar": 0,
        "meta_mean_motion_dot": -5e-07,
        "meta_mean_motion_ddot": 0,
        "tle_line1": "1 45358U 20018A   25354.90570263 -.00000050  00000+0  00000+0 0  9991",
        "tle_line2": "2 45358  64.4648 318.6832 0011427 250.0027 109.8671  2.13102664 44860"
      },
      "geometry": {
        "type": "Point",
        "coordinates": [
          -32.471806286637275,
          17.906922752754372
        ]
      }
    }
  ]
}